FLOCK 3P-33             
1 41990U 17008AU  17073.88875555  .00001081  00000-0  50808-4 0  9993
2 41990  97.5080 135.4679 0008781 154.9411 205.2249 15.21741611  3510
